{
    "links": {
        "self": "http://www.neowsapp.com/rest/v1/neo/3669065?api_key=iIulBulltgU6a56xZRHN4H3l9WmuAYTsLGpBGhQ2"
    },
    "id": "3669065",
    "neo_reference_id": "3669065",
    "name": "(2014 HS4)",
    "designation": "2014 HS4",
    "nasa_jpl_url": "http://ssd.jpl.nasa.gov/sbdb.cgi?sstr=3669065",
    "absolute_magnitude_h": 26.1,
    "estimated_diameter": {
        "kilometers": {
            "estimated_diameter_min": 0.0160160338,
            "estimated_diameter_max": 0.0358129403
        },
        "meters": {
            "estimated_diameter_min": 16.0160337979,
            "estimated_diameter_max": 35.8129403019
        },
        "miles": {
            "estimated_diameter_min": 0.0099518989,
            "estimated_diameter_max": 0.0222531225
        },
        "feet": {
            "estimated_diameter_min": 52.5460443254,
            "estimated_diameter_max": 117.4965270602
        }
    },
    "is_potentially_hazardous_asteroid": false,
    "close_approach_data": [
        {
            "close_approach_date": "2014-04-22",
            "close_approach_date_full": "2014-Apr-22 19:01",
            "epoch_date_close_approach": 1398193260000,
            "relative_velocity": {
                "kilometers_per_second": "5.6510853109",
                "kilometers_per_hour": "20343.9071191797",
                "miles_per_hour": "12640.9127319147"
            },
            "miss_distance": {
                "astronomical": "0.0474675335",
                "lunar": "18.4648705315",
                "kilometers": "7101041.905753645",
                "miles": "4412382.835324501"
            },
            "orbiting_body": "Earth"
        },
        {
            "close_approach_date": "2149-03-14",
            "close_approach_date_full": "2149-Mar-14 21:48",
            "epoch_date_close_approach": 5655044880000,
            "relative_velocity": {
                "kilometers_per_second": "11.886755314",
                "kilometers_per_hour": "42792.319130513",
                "miles_per_hour": "26589.4829619568"
            },
            "miss_distance": {
                "astronomical": "0.2439558077",
                "lunar": "94.8988091953",
                "kilometers": "36495269.206049599",
                "miles": "22677108.7331345062"
            },
            "orbiting_body": "Earth"
        }
    ],
    "orbital_data": {
        "orbit_id": "5",
        "orbit_determination_date": "2017-04-06 08:41:28",
        "first_observation_date": "2014-04-23",
        "last_observation_date": "2014-04-29",
        "data_arc_in_days": 6,
        "observations_used": 23,
        "orbit_uncertainty": "8",
        "minimum_orbit_intersection": ".0463749",
        "jupiter_tisserand_invariant": "3.986",
        "epoch_osculation": "2456772.5",
        "eccentricity": ".4104108624679835",
        "semi_major_axis": "1.779653604085454",
        "inclination": "4.932904252912801",
        "ascending_node_longitude": "213.5924680780318",
        "orbital_period": "867.1648077737323",
        "perihelion_distance": "1.049264433538488",
        "perihelion_argument": "350.8975151098732",
        "aphelion_distance": "2.510042774632421",
        "perihelion_time": "2456763.522798761209",
        "mean_anomaly": "3.72684917214494",
        "mean_motion": ".4151459985146608",
        "equinox": "J2000",
        "orbit_class": {
            "orbit_class_type": "AMO",
            "orbit_class_description": "Near-Earth asteroid orbits similar to that of 1221 Amor",
            "orbit_class_range": "1.017 AU < q (perihelion) < 1.3 AU"
        }
    },
    "is_sentry_object": false
}